#dV2018 10  5  0  0  0.00000000    8640 U+u   IGS14 FIT TUD 
## 2021 432000.00000000    10.00000000 58396 0.0000000000000
+    1   L47  0  0  0  0  0  0  0  0  0  0  0  0  0  0  0  0                          
+          0  0  0  0  0  0  0  0  0  0  0  0  0  0  0  0  0                          
+          0  0  0  0  0  0  0  0  0  0  0  0  0  0  0  0  0                          
+          0  0  0  0  0  0  0  0  0  0  0  0  0  0  0  0  0                          
+          0  0  0  0  0  0  0  0  0  0  0  0  0  0  0  0  0                          
++         0  0  0  0  0  0  0  0  0  0  0  0  0  0  0  0  0                          
++         0  0  0  0  0  0  0  0  0  0  0  0  0  0  0  0  0                          
++         0  0  0  0  0  0  0  0  0  0  0  0  0  0  0  0  0                          
++         0  0  0  0  0  0  0  0  0  0  0  0  0  0  0  0  0                          
++         0  0  0  0  0  0  0  0  0  0  0  0  0  0  0  0  0                          
%c M  cc GPS ccc cccc cccc cccc cccc ccccc ccccc ccccc ccccc                          
%c cc cc ccc ccc cccc cccc cccc cccc ccccc ccccc ccccc ccccc                          
%f  0.0000000  0.000000000  0.00000000000  0.000000000000000                          
%f  0.0000000  0.000000000  0.00000000000  0.000000000000000                          
%i    0    0    0    0      0      0      0      0         0                          
%i    0    0    0    0      0      0      0      0         0                          
/* Created by: RDOD_AR_WGT                                                            
/* Setup     : SWARMA.18.278_RDOD_AR.inp                                              
/* Executed  : 02-Jun-2021 23:33 UTC, by swarmgen@euclid2.lr.tudelft.nl               
/*                                                                                    
*  2018 10 05 20 17 20.00000000                             
PL47 -1546.1196250 -1600.6188197 -6450.1290900 999999.999999
VL47 56229.3452319 44977.6766067-24649.2876701 999999.999999
*  2018 10 05 20 17 30.00000000                             
PL47 -1489.7625063 -1555.5836474 -6474.3740542 999999.999999
VL47 56483.7506761 45091.6712954-23840.1417029 999999.999999
*  2018 10 05 20 17 40.00000000                             
PL47 -1433.1544131 -1510.4374708 -6497.8083922 999999.999999
VL47 56731.2876349 45199.6848277-23028.0520677 999999.999999
*  2018 10 05 20 17 50.00000000                             
PL47 -1376.3022333 -1465.1862723 -6520.4292105 999999.999999
VL47 56971.9175954 45301.7147449-22213.1191985 999999.999999
*  2018 10 05 20 18 00.00000000                             
PL47 -1319.2128929 -1419.8360364 -6542.2337164 999999.999999
VL47 57205.6028162 45397.7593257-21395.4438444 999999.999999
*  2018 10 05 20 18 10.00000000                             
PL47 -1261.8933550 -1374.3927491 -6563.2192178 999999.999999
VL47 57432.3063366 45487.8175844-20575.1270885 999999.999999
*  2018 10 05 20 18 20.00000000                             
PL47 -1204.3506195 -1328.8623968 -6583.3831239 999999.999999
VL47 57651.9919978 45571.8892751-19752.2703603 999999.999999
*  2018 10 05 20 18 30.00000000                             
PL47 -1146.5917220 -1283.2509659 -6602.7229457 999999.999999
VL47 57864.6244687 45649.9749019-18926.9754398 999999.999999
*  2018 10 05 20 18 40.00000000                             
PL47 -1088.6237331 -1237.5644419 -6621.2362961 999999.999999
VL47 58070.1692745 45722.0757338-18099.3444501 999999.999999
*  2018 10 05 20 18 50.00000000                             
PL47 -1030.4537572 -1191.8088087 -6638.9208901 999999.999999
VL47 58268.5928258 45788.1938245-17269.4798375 999999.999999
*  2018 10 05 20 19 00.00000000                             
PL47  -972.0889321 -1145.9900476 -6655.7745455 999999.999999
VL47 58459.8624425 45848.3320304-16437.4843343 999999.999999
*  2018 10 05 20 19 10.00000000                             
PL47  -913.5364276 -1100.1141367 -6671.7951828 999999.999999
VL47 58643.9463661 45902.4940197-15603.4609091 999999.999999
*  2018 10 05 20 19 20.00000000                             
PL47  -854.8034449 -1054.1870501 -6686.9808257 999999.999999
VL47 58820.8137546 45950.6842662-14767.5127164 999999.999999
*  2018 10 05 20 19 30.00000000                             
PL47  -795.8972156 -1008.2147570 -6701.3296011 999999.999999
VL47 58990.4346650 45992.9080322-13929.7430612 999999.999999
*  2018 10 05 20 19 40.00000000                             
PL47  -736.8250008  -962.2032209 -6714.8397392 999999.999999
VL47 59152.7800342 46029.1713477-13090.2553825 999999.999999
*  2018 10 05 20 19 50.00000000                             
PL47  -677.5940901  -916.1583989 -6727.5095737 999999.999999
VL47 59307.8216649 46059.4809925-12249.1532499 999999.999999
*  2018 10 05 20 20 00.00000000                             
PL47  -618.2118011  -870.0862410 -6739.3375421 999999.999999
VL47 59455.5322197 46083.8444856-11406.5403647 999999.999999
*  2018 10 05 20 20 10.00000000                             
PL47  -558.6854782  -823.9926892 -6750.3221854 999999.999999
VL47 59595.8852147 46102.2700761-10562.5205606 999999.999999
*  2018 10 05 20 20 20.00000000                             
PL47  -499.0224918  -777.8836771 -6760.4621489 999999.999999
VL47 59728.8550141 46114.7667378 -9717.1978073 999999.999999
*  2018 10 05 20 20 30.00000000                             
PL47  -439.2302375  -731.7651288 -6769.7561814 999999.999999
VL47 59854.4168339 46121.3441655 -8870.6762156 999999.999999
*  2018 10 05 20 20 40.00000000                             
PL47  -379.3161354  -685.6429584 -6778.2031364 999999.999999
VL47 59972.5467485 46122.0127714 -8023.0600429 999999.999999
*  2018 10 05 20 20 50.00000000                             
PL47  -319.2876290  -639.5230692 -6785.8019715 999999.999999
VL47 60083.2217006 46116.7836796 -7174.4536991 999999.999999
*  2018 10 05 20 21 00.00000000                             
PL47  -259.1521844  -593.4113530 -6792.5517486 999999.999999
VL47 60186.4195203 46105.6687210 -6324.9617547 999999.999999
*  2018 10 05 20 21 10.00000000                             
PL47  -198.9172894  -547.3136895 -6798.4516347 999999.999999
VL47 60282.1189547 46088.6804349 -5474.6889446 999999.999999
*  2018 10 05 20 21 20.00000000                             
PL47  -138.5904527  -501.2359455 -6803.5009012 999999.999999
VL47 60370.2997032 46065.8320808 -4623.7401566 999999.999999
*  2018 10 05 20 21 30.00000000                             
PL47   -78.1792027  -455.1839741 -6807.6989247 999999.999999
VL47 60450.9424449 46037.1376531 -3772.2203956 999999.999999
*  2018 10 05 20 21 40.00000000                             
PL47   -17.6910866  -409.1636140 -6811.0451867 999999.999999
VL47 60524.0288450 46002.6118932 -2920.2347365 999999.999999
*  2018 10 05 20 21 50.00000000                             
PL47    42.8663304  -363.1806889 -6813.5392739 999999.999999
VL47 60589.5415422 45962.2702936 -2067.8882786 999999.999999
*  2018 10 05 20 22 00.00000000                             
PL47   103.4854664  -317.2410066 -6815.1808780 999999.999999
VL47 60647.4641269 45916.1290977 -1215.2861116 999999.999999
*  2018 10 05 20 22 10.00000000                             
PL47   164.1587234  -271.3503583 -6815.9697959 999999.999999
VL47 60697.7811193 45864.2052932  -362.5332861 999999.999999
*  2018 10 05 20 22 20.00000000                             
PL47   224.8784886  -225.5145177 -6815.9059294 999999.999999
VL47 60740.4779427 45806.5165964   490.2652117 999999.999999
*  2018 10 05 20 22 30.00000000                             
PL47   285.6371347  -179.7392406 -6814.9892852 999999.999999
VL47 60775.5408917 45743.0814235  1343.0044692 999999.999999
*  2018 10 05 20 22 40.00000000                             
PL47   346.4270214  -134.0302640 -6813.2199751 999999.999999
VL47 60802.9571079 45673.9188580  2195.5796240 999999.999999
*  2018 10 05 20 22 50.00000000                             
PL47   407.2404960   -88.3933054 -6810.5982156 999999.999999
VL47 60822.7145835 45599.0486316  3047.8858155 999999.999999
*  2018 10 05 20 23 00.00000000                             
PL47   468.0698940   -42.8340625 -6807.1243281 999999.999999
VL47 60834.8022014 45518.4911271  3899.8181437 999999.999999
*  2018 10 05 20 23 10.00000000                             
PL47   528.9075404     2.6417881 -6802.7987389 999999.999999
VL47 60839.2097932 45432.2673992  4751.2716641 999999.999999
*  2018 10 05 20 23 20.00000000                             
PL47   589.7457505    48.0285908 -6797.6219794 999999.999999
VL47 60835.9281846 45340.3991948  5602.1414278 999999.999999
*  2018 10 05 20 23 30.00000000                             
PL47   650.5768309    93.3207125 -6791.5946856 999999.999999
VL47 60824.9492091 45242.9089577  6452.3225436 999999.999999
*  2018 10 05 20 23 40.00000000                             
PL47   711.3930807   138.5125424 -6784.7175988 999999.999999
VL47 60806.2656894 45139.8198146  7301.7102330 999999.999999
*  2018 10 05 20 23 50.00000000                             
PL47   772.1867921   183.5984937 -6776.9915645 999999.999999
VL47 60779.8714009 45031.1555494  8150.1998546 999999.999999
*  2018 10 05 20 24 00.00000000                             
PL47   832.9502515   228.5730033 -6768.4175332 999999.999999
VL47 60745.7610407 44916.9405777  8997.6868927 999999.999999
*  2018 10 05 20 24 10.00000000                             
PL47   893.6757406   273.4305330 -6758.9965597 999999.999999
VL47 60703.9302111 44797.1999559  9844.0669229 999999.999999
*  2018 10 05 20 24 20.00000000                             
PL47   954.3555372   318.1655699 -6748.7298032 999999.999999
VL47 60654.3754683 44671.9593088 10689.2355811 999999.999999
*  2018 10 05 20 24 30.00000000                             
PL47  1014.9819161   362.7726271 -6737.6185271 999999.999999
VL47 60597.0942861 44541.2450611 11533.0885607 999999.999999
EOF                                                         
